STARLINK-36727
1 67875U 26034AB  26092.83335647 -.01856830  00000+0 -47327-1 0  9992
2 67875  53.1594  91.8655 0001298  79.9860 339.8840 15.42245203  6004
